<?xml version="1.0" encoding="UTF-8"?>
<gpx version="1.1" creator="hill-route-site"
  xmlns="http://www.topografix.com/GPX/1/1">
  <metadata>
    <name>Mayar and Driesh (Glenshee) — pilot GPX guide</name>
    <desc>Pilot file for hill-route-site. Track points: (1) mapCentre from this day’s route.json; (2) Mayar summit and (3) Driesh summit coordinates from English Wikipedia infoboxes (CC BY-SA). Segments are straight joins between those published positions — useful as an on-map guide only, not a surveyed path or full route geometry.</desc>
    <keywords>pilot wikipedia-summits route-mapcentre</keywords>
  </metadata>
  <trk>
    <name>Mayar / Driesh — pilot reference segment</name>
    <type>hiking</type>
    <trkseg>
      <trkpt lat="56.8826" lon="-3.421" />
      <trkpt lat="56.848936" lon="-3.246299" />
      <trkpt lat="56.84796" lon="-3.19655" />
    </trkseg>
  </trk>
</gpx>
