<?xml version="1.0" encoding="UTF-8" standalone="yes"?>
<gpx version="1.1" creator="OS Maps - Web" xmlns="http://www.topografix.com/GPX/1/1"
xmlns:xsi="http://www.w3.org/2001/XMLSchema-instance"
xsi:schemaLocation="http://www.topografix.com/GPX/1/1 http://www.topografix.com/GPX/1/1/gpx.xsd"
xmlns:gs="http://www.topografix.com/GPX/gpx_style/0/2"
xmlns:gh="https://graphhopper.com/public/schema/gpx/1.1"
xmlns:os="https://ordnancesurvey.co.uk/public/schema/route/0.1">
    <metadata>
        <name>Loch Lee Loop</name>
        <desc></desc>
        <bounds minlat="56.8902000" minlon="-3.0793200" maxlat="56.9295700" maxlon="-2.9104500"/>
        <extensions>
            <os:version>2.0</os:version>
            <os:point lat="56.9112200" lon="-2.9104500" type="start"/>
            <os:point lat="56.9112200" lon="-2.9104500" type="end"/>
            <os:activity>ON_FOOT_WALKING</os:activity>
            <os:difficulty>MODERATE</os:difficulty>
            <os:paths/>
            <os:distance>28071.0237033</os:distance>
            <os:elevation_ascent>858.0300000</os:elevation_ascent>
        </extensions>
    </metadata>
    <wpt lat="56.9112200" lon="-2.9104500"/>
    <wpt lat="56.9115500" lon="-2.9148000"/>
    <wpt lat="56.9090400" lon="-2.9363300"/>
    <wpt lat="56.9066800" lon="-2.9482900"/>
    <wpt lat="56.9012500" lon="-2.9685300"/>
    <wpt lat="56.8985400" lon="-2.9742000"/>
    <wpt lat="56.8902000" lon="-3.0023300"/>
    <wpt lat="56.8926900" lon="-3.0209300"/>
    <wpt lat="56.8935300" lon="-3.0214900"/>
    <wpt lat="56.8944300" lon="-3.0229700"/>
    <wpt lat="56.8956000" lon="-3.0238400"/>
    <wpt lat="56.8962000" lon="-3.0258400"/>
    <wpt lat="56.8975100" lon="-3.0269400"/>
    <wpt lat="56.8978500" lon="-3.0291700"/>
    <wpt lat="56.8984500" lon="-3.0314500"/>
    <wpt lat="56.8988700" lon="-3.0324700"/>
    <wpt lat="56.8997200" lon="-3.0330000"/>
    <wpt lat="56.9008800" lon="-3.0350300"/>
    <wpt lat="56.9014900" lon="-3.0357600"/>
    <wpt lat="56.9015300" lon="-3.0364600"/>
    <wpt lat="56.9018200" lon="-3.0370300"/>
    <wpt lat="56.9024200" lon="-3.0393000"/>
    <wpt lat="56.9037200" lon="-3.0417900"/>
    <wpt lat="56.9053800" lon="-3.0461700"/>
    <wpt lat="56.9083000" lon="-3.0521100"/>
    <wpt lat="56.9089400" lon="-3.0539000"/>
    <wpt lat="56.9102200" lon="-3.0561800"/>
    <wpt lat="56.9112300" lon="-3.0626600"/>
    <wpt lat="56.9112500" lon="-3.0644900"/>
    <wpt lat="56.9102800" lon="-3.0684800"/>
    <wpt lat="56.9096000" lon="-3.0705900"/>
    <wpt lat="56.9078300" lon="-3.0722400"/>
    <wpt lat="56.9072100" lon="-3.0750800"/>
    <wpt lat="56.9071500" lon="-3.0772700"/>
    <wpt lat="56.9075200" lon="-3.0786700"/>
    <wpt lat="56.9196200" lon="-3.0772200"/>
    <wpt lat="56.9234000" lon="-3.0678900"/>
    <wpt lat="56.9285900" lon="-3.0626600"/>
    <wpt lat="56.9295700" lon="-3.0638100"/>
    <wpt lat="56.9270600" lon="-3.0610000"/>
    <wpt lat="56.9269700" lon="-3.0588700"/>
    <wpt lat="56.9210600" lon="-3.0422400"/>
    <wpt lat="56.9203000" lon="-3.0317500"/>
    <wpt lat="56.9231900" lon="-3.0175900"/>
    <wpt lat="56.9218200" lon="-3.0081800"/>
    <wpt lat="56.9215500" lon="-2.9987700"/>
    <wpt lat="56.9190100" lon="-2.9932400"/>
    <wpt lat="56.9110100" lon="-2.9939600"/>
    <wpt lat="56.9076300" lon="-2.9882400"/>
    <wpt lat="56.9038300" lon="-2.9679300"/>
    <wpt lat="56.9112200" lon="-2.9104500"/>
    <trk>
        <name>Loch Lee Loop</name>
        <trkseg>
            <trkpt lat="56.9112200" lon="-2.9104500"/>
            <trkpt lat="56.9112400" lon="-2.9109200"/>
            <trkpt lat="56.9112900" lon="-2.9116400"/>
            <trkpt lat="56.9112700" lon="-2.9126400"/>
            <trkpt lat="56.9113100" lon="-2.9130600"/>
            <trkpt lat="56.9114300" lon="-2.9135800"/>
            <trkpt lat="56.9115800" lon="-2.9140500"/>
            <trkpt lat="56.9116000" lon="-2.9143100"/>
            <trkpt lat="56.9115500" lon="-2.9148000"/>
            <trkpt lat="56.9113500" lon="-2.9152900"/>
            <trkpt lat="56.9113500" lon="-2.9154300"/>
            <trkpt lat="56.9113700" lon="-2.9155600"/>
            <trkpt lat="56.9115800" lon="-2.9161500"/>
            <trkpt lat="56.9116200" lon="-2.9167700"/>
            <trkpt lat="56.9115800" lon="-2.9180800"/>
            <trkpt lat="56.9115800" lon="-2.9187900"/>
            <trkpt lat="56.9116200" lon="-2.9194100"/>
            <trkpt lat="56.9114100" lon="-2.9205600"/>
            <trkpt lat="56.9113200" lon="-2.9208500"/>
            <trkpt lat="56.9110600" lon="-2.9213300"/>
            <trkpt lat="56.9107900" lon="-2.9221500"/>
            <trkpt lat="56.9107600" lon="-2.9224100"/>
            <trkpt lat="56.9107800" lon="-2.9229500"/>
            <trkpt lat="56.9107500" lon="-2.9232300"/>
            <trkpt lat="56.9106400" lon="-2.9236700"/>
            <trkpt lat="56.9105100" lon="-2.9239800"/>
            <trkpt lat="56.9104500" lon="-2.9243300"/>
            <trkpt lat="56.9104400" lon="-2.9245500"/>
            <trkpt lat="56.9104500" lon="-2.9250500"/>
            <trkpt lat="56.9104100" lon="-2.9254300"/>
            <trkpt lat="56.9103300" lon="-2.9258300"/>
            <trkpt lat="56.9103100" lon="-2.9261200"/>
            <trkpt lat="56.9103200" lon="-2.9264600"/>
            <trkpt lat="56.9104100" lon="-2.9274400"/>
            <trkpt lat="56.9104000" lon="-2.9275700"/>
            <trkpt lat="56.9097300" lon="-2.9298700"/>
            <trkpt lat="56.9096000" lon="-2.9304000"/>
            <trkpt lat="56.9095200" lon="-2.9308900"/>
            <trkpt lat="56.9092600" lon="-2.9336300"/>
            <trkpt lat="56.9090200" lon="-2.9358100"/>
            <trkpt lat="56.9090400" lon="-2.9363300"/>
            <trkpt lat="56.9091200" lon="-2.9374600"/>
            <trkpt lat="56.9090300" lon="-2.9381900"/>
            <trkpt lat="56.9090100" lon="-2.9387800"/>
            <trkpt lat="56.9086900" lon="-2.9396100"/>
            <trkpt lat="56.9083700" lon="-2.9413100"/>
            <trkpt lat="56.9082100" lon="-2.9420600"/>
            <trkpt lat="56.9080700" lon="-2.9428700"/>
            <trkpt lat="56.9078900" lon="-2.9433300"/>
            <trkpt lat="56.9076300" lon="-2.9441800"/>
            <trkpt lat="56.9069600" lon="-2.9459700"/>
            <trkpt lat="56.9068800" lon="-2.9465400"/>
            <trkpt lat="56.9067200" lon="-2.9480900"/>
            <trkpt lat="56.9066800" lon="-2.9482900"/>
            <trkpt lat="56.9066300" lon="-2.9485300"/>
            <trkpt lat="56.9061000" lon="-2.9500200"/>
            <trkpt lat="56.9057700" lon="-2.9512100"/>
            <trkpt lat="56.9057400" lon="-2.9518800"/>
            <trkpt lat="56.9054000" lon="-2.9535400"/>
            <trkpt lat="56.9051000" lon="-2.9561900"/>
            <trkpt lat="56.9049800" lon="-2.9564500"/>
            <trkpt lat="56.9048700" lon="-2.9568000"/>
            <trkpt lat="56.9048000" lon="-2.9575400"/>
            <trkpt lat="56.9048100" lon="-2.9581600"/>
            <trkpt lat="56.9048600" lon="-2.9586400"/>
            <trkpt lat="56.9048500" lon="-2.9589300"/>
            <trkpt lat="56.9048100" lon="-2.9593500"/>
            <trkpt lat="56.9045500" lon="-2.9604300"/>
            <trkpt lat="56.9045800" lon="-2.9611000"/>
            <trkpt lat="56.9044200" lon="-2.9624000"/>
            <trkpt lat="56.9043400" lon="-2.9632800"/>
            <trkpt lat="56.9043800" lon="-2.9640600"/>
            <trkpt lat="56.9043500" lon="-2.9651900"/>
            <trkpt lat="56.9042000" lon="-2.9663300"/>
            <trkpt lat="56.9039900" lon="-2.9667900"/>
            <trkpt lat="56.9039300" lon="-2.9670400"/>
            <trkpt lat="56.9038700" lon="-2.9676000"/>
            <trkpt lat="56.9037100" lon="-2.9671900"/>
            <trkpt lat="56.9036500" lon="-2.9671800"/>
            <trkpt lat="56.9030900" lon="-2.9674500"/>
            <trkpt lat="56.9026300" lon="-2.9678100"/>
            <trkpt lat="56.9017100" lon="-2.9682400"/>
            <trkpt lat="56.9012500" lon="-2.9685300"/>
            <trkpt lat="56.9004500" lon="-2.9690300"/>
            <trkpt lat="56.9000100" lon="-2.9692700"/>
            <trkpt lat="56.8996500" lon="-2.9693900"/>
            <trkpt lat="56.8992100" lon="-2.9692100"/>
            <trkpt lat="56.8991300" lon="-2.9692400"/>
            <trkpt lat="56.8990300" lon="-2.9693600"/>
            <trkpt lat="56.8990100" lon="-2.9695000"/>
            <trkpt lat="56.8990300" lon="-2.9703900"/>
            <trkpt lat="56.8988900" lon="-2.9704100"/>
            <trkpt lat="56.8987400" lon="-2.9705400"/>
            <trkpt lat="56.8986700" lon="-2.9706400"/>
            <trkpt lat="56.8984800" lon="-2.9707100"/>
            <trkpt lat="56.8984400" lon="-2.9710100"/>
            <trkpt lat="56.8985000" lon="-2.9711500"/>
            <trkpt lat="56.8986100" lon="-2.9712900"/>
            <trkpt lat="56.8986100" lon="-2.9715200"/>
            <trkpt lat="56.8984800" lon="-2.9717600"/>
            <trkpt lat="56.8984900" lon="-2.9718500"/>
            <trkpt lat="56.8986500" lon="-2.9719500"/>
            <trkpt lat="56.8987700" lon="-2.9722000"/>
            <trkpt lat="56.8987800" lon="-2.9722900"/>
            <trkpt lat="56.8983600" lon="-2.9725600"/>
            <trkpt lat="56.8982700" lon="-2.9729200"/>
            <trkpt lat="56.8980900" lon="-2.9731600"/>
            <trkpt lat="56.8981000" lon="-2.9733900"/>
            <trkpt lat="56.8982600" lon="-2.9733600"/>
            <trkpt lat="56.8983300" lon="-2.9734900"/>
            <trkpt lat="56.8985500" lon="-2.9734600"/>
            <trkpt lat="56.8985800" lon="-2.9737100"/>
            <trkpt lat="56.8987100" lon="-2.9738700"/>
            <trkpt lat="56.8986900" lon="-2.9740900"/>
            <trkpt lat="56.8985400" lon="-2.9742000"/>
            <trkpt lat="56.8980600" lon="-2.9748800"/>
            <trkpt lat="56.8980600" lon="-2.9751000"/>
            <trkpt lat="56.8984600" lon="-2.9750600"/>
            <trkpt lat="56.8989300" lon="-2.9750700"/>
            <trkpt lat="56.8989900" lon="-2.9752200"/>
            <trkpt lat="56.8990000" lon="-2.9755400"/>
            <trkpt lat="56.8988300" lon="-2.9758900"/>
            <trkpt lat="56.8987600" lon="-2.9761900"/>
            <trkpt lat="56.8987100" lon="-2.9765200"/>
            <trkpt lat="56.8985700" lon="-2.9768700"/>
            <trkpt lat="56.8985500" lon="-2.9772700"/>
            <trkpt lat="56.8985100" lon="-2.9774600"/>
            <trkpt lat="56.8983700" lon="-2.9775600"/>
            <trkpt lat="56.8981500" lon="-2.9775400"/>
            <trkpt lat="56.8979400" lon="-2.9776900"/>
            <trkpt lat="56.8975900" lon="-2.9780300"/>
            <trkpt lat="56.8973400" lon="-2.9782400"/>
            <trkpt lat="56.8969600" lon="-2.9791300"/>
            <trkpt lat="56.8966300" lon="-2.9797800"/>
            <trkpt lat="56.8962800" lon="-2.9808400"/>
            <trkpt lat="56.8961500" lon="-2.9815900"/>
            <trkpt lat="56.8960100" lon="-2.9819500"/>
            <trkpt lat="56.8959200" lon="-2.9824700"/>
            <trkpt lat="56.8959400" lon="-2.9828500"/>
            <trkpt lat="56.8958700" lon="-2.9834000"/>
            <trkpt lat="56.8958500" lon="-2.9840600"/>
            <trkpt lat="56.8958600" lon="-2.9844800"/>
            <trkpt lat="56.8957100" lon="-2.9847300"/>
            <trkpt lat="56.8955000" lon="-2.9852900"/>
            <trkpt lat="56.8953700" lon="-2.9860600"/>
            <trkpt lat="56.8951500" lon="-2.9864100"/>
            <trkpt lat="56.8950600" lon="-2.9867300"/>
            <trkpt lat="56.8948900" lon="-2.9869100"/>
            <trkpt lat="56.8945300" lon="-2.9878600"/>
            <trkpt lat="56.8944400" lon="-2.9884200"/>
            <trkpt lat="56.8943200" lon="-2.9886600"/>
            <trkpt lat="56.8943100" lon="-2.9890000"/>
            <trkpt lat="56.8941900" lon="-2.9893400"/>
            <trkpt lat="56.8942700" lon="-2.9897800"/>
            <trkpt lat="56.8941700" lon="-2.9903200"/>
            <trkpt lat="56.8940600" lon="-2.9905000"/>
            <trkpt lat="56.8939400" lon="-2.9912500"/>
            <trkpt lat="56.8938200" lon="-2.9914300"/>
            <trkpt lat="56.8934600" lon="-2.9916600"/>
            <trkpt lat="56.8931400" lon="-2.9918300"/>
            <trkpt lat="56.8930000" lon="-2.9921600"/>
            <trkpt lat="56.8931900" lon="-2.9925700"/>
            <trkpt lat="56.8933000" lon="-2.9929300"/>
            <trkpt lat="56.8932700" lon="-2.9931500"/>
            <trkpt lat="56.8930900" lon="-2.9933100"/>
            <trkpt lat="56.8928700" lon="-2.9938800"/>
            <trkpt lat="56.8928000" lon="-2.9943500"/>
            <trkpt lat="56.8927100" lon="-2.9945100"/>
            <trkpt lat="56.8926700" lon="-2.9948300"/>
            <trkpt lat="56.8925000" lon="-2.9949700"/>
            <trkpt lat="56.8923500" lon="-2.9948800"/>
            <trkpt lat="56.8922300" lon="-2.9948800"/>
            <trkpt lat="56.8920300" lon="-2.9950000"/>
            <trkpt lat="56.8918800" lon="-2.9949400"/>
            <trkpt lat="56.8917300" lon="-2.9950400"/>
            <trkpt lat="56.8915700" lon="-2.9953300"/>
            <trkpt lat="56.8915400" lon="-2.9956700"/>
            <trkpt lat="56.8914300" lon="-2.9958600"/>
            <trkpt lat="56.8914400" lon="-2.9963000"/>
            <trkpt lat="56.8911700" lon="-2.9966600"/>
            <trkpt lat="56.8909700" lon="-2.9972700"/>
            <trkpt lat="56.8908200" lon="-2.9977800"/>
            <trkpt lat="56.8906400" lon="-2.9981600"/>
            <trkpt lat="56.8905400" lon="-2.9987700"/>
            <trkpt lat="56.8906200" lon="-2.9994200"/>
            <trkpt lat="56.8904300" lon="-3.0002300"/>
            <trkpt lat="56.8904500" lon="-3.0004800"/>
            <trkpt lat="56.8903500" lon="-3.0011800"/>
            <trkpt lat="56.8902200" lon="-3.0016000"/>
            <trkpt lat="56.8902000" lon="-3.0023300"/>
            <trkpt lat="56.8902000" lon="-3.0024300"/>
            <trkpt lat="56.8903100" lon="-3.0031400"/>
            <trkpt lat="56.8904400" lon="-3.0041900"/>
            <trkpt lat="56.8908300" lon="-3.0049100"/>
            <trkpt lat="56.8910100" lon="-3.0054200"/>
            <trkpt lat="56.8915200" lon="-3.0063000"/>
            <trkpt lat="56.8922100" lon="-3.0071200"/>
            <trkpt lat="56.8924600" lon="-3.0074900"/>
            <trkpt lat="56.8928700" lon="-3.0085100"/>
            <trkpt lat="56.8929500" lon="-3.0090900"/>
            <trkpt lat="56.8929500" lon="-3.0094100"/>
            <trkpt lat="56.8930200" lon="-3.0097700"/>
            <trkpt lat="56.8929900" lon="-3.0100900"/>
            <trkpt lat="56.8927800" lon="-3.0104200"/>
            <trkpt lat="56.8926800" lon="-3.0112500"/>
            <trkpt lat="56.8925400" lon="-3.0115300"/>
            <trkpt lat="56.8924900" lon="-3.0117300"/>
            <trkpt lat="56.8921700" lon="-3.0121700"/>
            <trkpt lat="56.8917900" lon="-3.0122500"/>
            <trkpt lat="56.8916100" lon="-3.0123900"/>
            <trkpt lat="56.8916000" lon="-3.0126700"/>
            <trkpt lat="56.8914900" lon="-3.0131400"/>
            <trkpt lat="56.8915100" lon="-3.0135800"/>
            <trkpt lat="56.8918500" lon="-3.0142200"/>
            <trkpt lat="56.8918800" lon="-3.0146200"/>
            <trkpt lat="56.8919300" lon="-3.0149200"/>
            <trkpt lat="56.8918800" lon="-3.0153700"/>
            <trkpt lat="56.8919000" lon="-3.0156900"/>
            <trkpt lat="56.8918500" lon="-3.0164700"/>
            <trkpt lat="56.8918900" lon="-3.0168400"/>
            <trkpt lat="56.8918800" lon="-3.0173700"/>
            <trkpt lat="56.8920000" lon="-3.0176300"/>
            <trkpt lat="56.8920100" lon="-3.0179900"/>
            <trkpt lat="56.8923000" lon="-3.0183800"/>
            <trkpt lat="56.8924700" lon="-3.0185200"/>
            <trkpt lat="56.8924900" lon="-3.0187400"/>
            <trkpt lat="56.8924600" lon="-3.0190600"/>
            <trkpt lat="56.8926000" lon="-3.0193100"/>
            <trkpt lat="56.8926700" lon="-3.0195800"/>
            <trkpt lat="56.8925200" lon="-3.0199900"/>
            <trkpt lat="56.8925200" lon="-3.0202000"/>
            <trkpt lat="56.8925800" lon="-3.0205300"/>
            <trkpt lat="56.8926900" lon="-3.0209300"/>
            <trkpt lat="56.8929900" lon="-3.0212300"/>
            <trkpt lat="56.8932300" lon="-3.0212700"/>
            <trkpt lat="56.8935300" lon="-3.0214900"/>
            <trkpt lat="56.8940700" lon="-3.0224200"/>
            <trkpt lat="56.8944300" lon="-3.0229700"/>
            <trkpt lat="56.8946600" lon="-3.0231800"/>
            <trkpt lat="56.8949500" lon="-3.0232200"/>
            <trkpt lat="56.8951400" lon="-3.0236200"/>
            <trkpt lat="56.8953600" lon="-3.0237600"/>
            <trkpt lat="56.8956000" lon="-3.0238400"/>
            <trkpt lat="56.8957700" lon="-3.0244500"/>
            <trkpt lat="56.8959800" lon="-3.0254200"/>
            <trkpt lat="56.8962000" lon="-3.0258400"/>
            <trkpt lat="56.8972800" lon="-3.0266800"/>
            <trkpt lat="56.8975100" lon="-3.0269400"/>
            <trkpt lat="56.8978500" lon="-3.0291700"/>
            <trkpt lat="56.8984500" lon="-3.0314500"/>
            <trkpt lat="56.8988700" lon="-3.0324700"/>
            <trkpt lat="56.8990700" lon="-3.0326600"/>
            <trkpt lat="56.8997200" lon="-3.0330000"/>
            <trkpt lat="56.9006000" lon="-3.0344600"/>
            <trkpt lat="56.9008800" lon="-3.0350300"/>
            <trkpt lat="56.9012000" lon="-3.0353300"/>
            <trkpt lat="56.9014900" lon="-3.0357600"/>
            <trkpt lat="56.9015300" lon="-3.0364600"/>
            <trkpt lat="56.9018200" lon="-3.0370300"/>
            <trkpt lat="56.9020000" lon="-3.0376800"/>
            <trkpt lat="56.9024200" lon="-3.0393000"/>
            <trkpt lat="56.9026500" lon="-3.0397800"/>
            <trkpt lat="56.9029200" lon="-3.0402100"/>
            <trkpt lat="56.9037200" lon="-3.0417900"/>
            <trkpt lat="56.9045700" lon="-3.0437600"/>
            <trkpt lat="56.9053800" lon="-3.0461700"/>
            <trkpt lat="56.9072500" lon="-3.0501400"/>
            <trkpt lat="56.9083000" lon="-3.0521100"/>
            <trkpt lat="56.9089400" lon="-3.0539000"/>
            <trkpt lat="56.9102200" lon="-3.0561800"/>
            <trkpt lat="56.9107600" lon="-3.0591200"/>
            <trkpt lat="56.9112300" lon="-3.0626600"/>
            <trkpt lat="56.9112500" lon="-3.0644900"/>
            <trkpt lat="56.9102800" lon="-3.0684800"/>
            <trkpt lat="56.9096000" lon="-3.0705900"/>
            <trkpt lat="56.9084000" lon="-3.0716500"/>
            <trkpt lat="56.9078300" lon="-3.0722400"/>
            <trkpt lat="56.9072100" lon="-3.0750800"/>
            <trkpt lat="56.9071500" lon="-3.0772700"/>
            <trkpt lat="56.9075200" lon="-3.0786700"/>
            <trkpt lat="56.9077600" lon="-3.0782100"/>
            <trkpt lat="56.9080200" lon="-3.0780800"/>
            <trkpt lat="56.9092300" lon="-3.0770400"/>
            <trkpt lat="56.9093200" lon="-3.0770200"/>
            <trkpt lat="56.9095000" lon="-3.0771000"/>
            <trkpt lat="56.9097700" lon="-3.0774100"/>
            <trkpt lat="56.9100600" lon="-3.0779000"/>
            <trkpt lat="56.9104400" lon="-3.0782300"/>
            <trkpt lat="56.9112400" lon="-3.0782700"/>
            <trkpt lat="56.9115400" lon="-3.0781700"/>
            <trkpt lat="56.9121800" lon="-3.0781000"/>
            <trkpt lat="56.9124700" lon="-3.0778900"/>
            <trkpt lat="56.9125500" lon="-3.0778800"/>
            <trkpt lat="56.9132600" lon="-3.0784200"/>
            <trkpt lat="56.9138700" lon="-3.0784100"/>
            <trkpt lat="56.9141600" lon="-3.0780300"/>
            <trkpt lat="56.9147500" lon="-3.0778100"/>
            <trkpt lat="56.9147800" lon="-3.0780400"/>
            <trkpt lat="56.9150300" lon="-3.0786100"/>
            <trkpt lat="56.9150900" lon="-3.0789900"/>
            <trkpt lat="56.9151700" lon="-3.0791400"/>
            <trkpt lat="56.9158200" lon="-3.0793200"/>
            <trkpt lat="56.9163400" lon="-3.0791800"/>
            <trkpt lat="56.9171200" lon="-3.0783900"/>
            <trkpt lat="56.9173100" lon="-3.0783600"/>
            <trkpt lat="56.9183000" lon="-3.0779900"/>
            <trkpt lat="56.9193500" lon="-3.0772700"/>
            <trkpt lat="56.9196200" lon="-3.0772200"/>
            <trkpt lat="56.9199100" lon="-3.0771500"/>
            <trkpt lat="56.9200100" lon="-3.0770500"/>
            <trkpt lat="56.9201300" lon="-3.0770500"/>
            <trkpt lat="56.9203000" lon="-3.0768800"/>
            <trkpt lat="56.9205600" lon="-3.0770400"/>
            <trkpt lat="56.9207500" lon="-3.0768700"/>
            <trkpt lat="56.9212800" lon="-3.0770800"/>
            <trkpt lat="56.9215400" lon="-3.0769600"/>
            <trkpt lat="56.9217400" lon="-3.0765300"/>
            <trkpt lat="56.9217900" lon="-3.0761100"/>
            <trkpt lat="56.9218400" lon="-3.0748400"/>
            <trkpt lat="56.9219100" lon="-3.0747400"/>
            <trkpt lat="56.9221900" lon="-3.0748400"/>
            <trkpt lat="56.9222800" lon="-3.0748000"/>
            <trkpt lat="56.9227100" lon="-3.0740700"/>
            <trkpt lat="56.9230000" lon="-3.0731800"/>
            <trkpt lat="56.9230300" lon="-3.0728000"/>
            <trkpt lat="56.9230300" lon="-3.0724200"/>
            <trkpt lat="56.9233100" lon="-3.0712400"/>
            <trkpt lat="56.9234400" lon="-3.0709800"/>
            <trkpt lat="56.9234600" lon="-3.0706900"/>
            <trkpt lat="56.9233300" lon="-3.0702000"/>
            <trkpt lat="56.9234200" lon="-3.0698500"/>
            <trkpt lat="56.9234500" lon="-3.0687100"/>
            <trkpt lat="56.9234000" lon="-3.0678900"/>
            <trkpt lat="56.9233200" lon="-3.0667200"/>
            <trkpt lat="56.9233700" lon="-3.0665100"/>
            <trkpt lat="56.9236000" lon="-3.0661100"/>
            <trkpt lat="56.9240100" lon="-3.0657900"/>
            <trkpt lat="56.9251200" lon="-3.0647300"/>
            <trkpt lat="56.9255900" lon="-3.0646300"/>
            <trkpt lat="56.9257700" lon="-3.0643300"/>
            <trkpt lat="56.9258900" lon="-3.0640500"/>
            <trkpt lat="56.9266200" lon="-3.0633500"/>
            <trkpt lat="56.9268900" lon="-3.0629000"/>
            <trkpt lat="56.9270500" lon="-3.0622100"/>
            <trkpt lat="56.9272200" lon="-3.0620100"/>
            <trkpt lat="56.9273800" lon="-3.0619400"/>
            <trkpt lat="56.9279600" lon="-3.0622500"/>
            <trkpt lat="56.9281500" lon="-3.0622200"/>
            <trkpt lat="56.9283300" lon="-3.0624900"/>
            <trkpt lat="56.9284900" lon="-3.0624200"/>
            <trkpt lat="56.9285900" lon="-3.0626600"/>
            <trkpt lat="56.9286800" lon="-3.0628500"/>
            <trkpt lat="56.9290200" lon="-3.0632300"/>
            <trkpt lat="56.9293600" lon="-3.0637000"/>
            <trkpt lat="56.9295700" lon="-3.0638100"/>
            <trkpt lat="56.9293600" lon="-3.0637000"/>
            <trkpt lat="56.9290200" lon="-3.0632300"/>
            <trkpt lat="56.9286800" lon="-3.0628500"/>
            <trkpt lat="56.9284900" lon="-3.0624200"/>
            <trkpt lat="56.9283300" lon="-3.0624900"/>
            <trkpt lat="56.9281500" lon="-3.0622200"/>
            <trkpt lat="56.9279600" lon="-3.0622500"/>
            <trkpt lat="56.9273800" lon="-3.0619400"/>
            <trkpt lat="56.9273200" lon="-3.0617900"/>
            <trkpt lat="56.9272300" lon="-3.0614300"/>
            <trkpt lat="56.9270600" lon="-3.0610000"/>
            <trkpt lat="56.9269700" lon="-3.0605800"/>
            <trkpt lat="56.9269800" lon="-3.0600200"/>
            <trkpt lat="56.9270200" lon="-3.0597000"/>
            <trkpt lat="56.9269800" lon="-3.0592600"/>
            <trkpt lat="56.9269900" lon="-3.0589800"/>
            <trkpt lat="56.9269700" lon="-3.0588700"/>
            <trkpt lat="56.9269300" lon="-3.0587000"/>
            <trkpt lat="56.9268800" lon="-3.0585600"/>
            <trkpt lat="56.9265300" lon="-3.0580100"/>
            <trkpt lat="56.9264300" lon="-3.0578200"/>
            <trkpt lat="56.9263600" lon="-3.0575500"/>
            <trkpt lat="56.9262500" lon="-3.0572700"/>
            <trkpt lat="56.9261800" lon="-3.0569200"/>
            <trkpt lat="56.9260400" lon="-3.0564700"/>
            <trkpt lat="56.9255600" lon="-3.0552100"/>
            <trkpt lat="56.9254900" lon="-3.0545400"/>
            <trkpt lat="56.9255100" lon="-3.0541600"/>
            <trkpt lat="56.9254200" lon="-3.0538800"/>
            <trkpt lat="56.9254800" lon="-3.0535300"/>
            <trkpt lat="56.9252600" lon="-3.0531000"/>
            <trkpt lat="56.9251000" lon="-3.0525800"/>
            <trkpt lat="56.9247900" lon="-3.0520500"/>
            <trkpt lat="56.9244000" lon="-3.0509700"/>
            <trkpt lat="56.9242800" lon="-3.0503100"/>
            <trkpt lat="56.9240500" lon="-3.0497900"/>
            <trkpt lat="56.9240100" lon="-3.0495200"/>
            <trkpt lat="56.9238500" lon="-3.0489500"/>
            <trkpt lat="56.9234800" lon="-3.0484500"/>
            <trkpt lat="56.9232200" lon="-3.0479600"/>
            <trkpt lat="56.9229800" lon="-3.0477800"/>
            <trkpt lat="56.9229300" lon="-3.0477000"/>
            <trkpt lat="56.9227100" lon="-3.0475700"/>
            <trkpt lat="56.9225800" lon="-3.0475900"/>
            <trkpt lat="56.9224900" lon="-3.0474800"/>
            <trkpt lat="56.9224300" lon="-3.0472900"/>
            <trkpt lat="56.9224100" lon="-3.0471300"/>
            <trkpt lat="56.9224000" lon="-3.0468800"/>
            <trkpt lat="56.9224300" lon="-3.0465400"/>
            <trkpt lat="56.9224600" lon="-3.0455400"/>
            <trkpt lat="56.9224300" lon="-3.0454300"/>
            <trkpt lat="56.9222100" lon="-3.0454500"/>
            <trkpt lat="56.9221000" lon="-3.0453500"/>
            <trkpt lat="56.9219800" lon="-3.0450100"/>
            <trkpt lat="56.9218500" lon="-3.0444900"/>
            <trkpt lat="56.9216900" lon="-3.0436100"/>
            <trkpt lat="56.9215800" lon="-3.0433100"/>
            <trkpt lat="56.9214300" lon="-3.0430000"/>
            <trkpt lat="56.9212600" lon="-3.0427900"/>
            <trkpt lat="56.9211600" lon="-3.0424600"/>
            <trkpt lat="56.9210600" lon="-3.0422400"/>
            <trkpt lat="56.9209600" lon="-3.0420800"/>
            <trkpt lat="56.9207800" lon="-3.0420900"/>
            <trkpt lat="56.9205600" lon="-3.0419900"/>
            <trkpt lat="56.9204600" lon="-3.0417900"/>
            <trkpt lat="56.9204000" lon="-3.0415800"/>
            <trkpt lat="56.9202700" lon="-3.0414200"/>
            <trkpt lat="56.9204100" lon="-3.0411300"/>
            <trkpt lat="56.9204600" lon="-3.0408200"/>
            <trkpt lat="56.9204100" lon="-3.0404600"/>
            <trkpt lat="56.9204000" lon="-3.0400100"/>
            <trkpt lat="56.9203100" lon="-3.0396600"/>
            <trkpt lat="56.9202900" lon="-3.0389500"/>
            <trkpt lat="56.9202900" lon="-3.0385000"/>
            <trkpt lat="56.9201700" lon="-3.0382100"/>
            <trkpt lat="56.9201100" lon="-3.0374300"/>
            <trkpt lat="56.9201500" lon="-3.0370300"/>
            <trkpt lat="56.9200000" lon="-3.0362400"/>
            <trkpt lat="56.9200000" lon="-3.0358000"/>
            <trkpt lat="56.9199700" lon="-3.0345400"/>
            <trkpt lat="56.9201300" lon="-3.0342000"/>
            <trkpt lat="56.9202000" lon="-3.0333800"/>
            <trkpt lat="56.9201700" lon="-3.0324300"/>
            <trkpt lat="56.9203000" lon="-3.0317500"/>
            <trkpt lat="56.9205800" lon="-3.0306100"/>
            <trkpt lat="56.9206800" lon="-3.0299800"/>
            <trkpt lat="56.9208300" lon="-3.0295800"/>
            <trkpt lat="56.9209200" lon="-3.0290800"/>
            <trkpt lat="56.9209300" lon="-3.0286300"/>
            <trkpt lat="56.9210500" lon="-3.0280000"/>
            <trkpt lat="56.9210200" lon="-3.0273800"/>
            <trkpt lat="56.9211600" lon="-3.0265800"/>
            <trkpt lat="56.9217400" lon="-3.0253900"/>
            <trkpt lat="56.9219500" lon="-3.0244900"/>
            <trkpt lat="56.9222400" lon="-3.0235900"/>
            <trkpt lat="56.9228200" lon="-3.0196100"/>
            <trkpt lat="56.9229500" lon="-3.0185400"/>
            <trkpt lat="56.9231900" lon="-3.0175900"/>
            <trkpt lat="56.9233200" lon="-3.0170500"/>
            <trkpt lat="56.9232000" lon="-3.0147200"/>
            <trkpt lat="56.9230900" lon="-3.0137000"/>
            <trkpt lat="56.9227500" lon="-3.0122600"/>
            <trkpt lat="56.9226900" lon="-3.0116200"/>
            <trkpt lat="56.9220900" lon="-3.0098400"/>
            <trkpt lat="56.9218200" lon="-3.0081800"/>
            <trkpt lat="56.9218000" lon="-3.0080700"/>
            <trkpt lat="56.9212700" lon="-3.0061100"/>
            <trkpt lat="56.9210600" lon="-3.0047000"/>
            <trkpt lat="56.9214100" lon="-3.0028900"/>
            <trkpt lat="56.9218000" lon="-2.9998700"/>
            <trkpt lat="56.9218000" lon="-2.9996900"/>
            <trkpt lat="56.9217800" lon="-2.9995400"/>
            <trkpt lat="56.9215500" lon="-2.9987700"/>
            <trkpt lat="56.9214800" lon="-2.9985500"/>
            <trkpt lat="56.9210000" lon="-2.9960000"/>
            <trkpt lat="56.9206500" lon="-2.9950700"/>
            <trkpt lat="56.9204200" lon="-2.9946500"/>
            <trkpt lat="56.9198700" lon="-2.9940400"/>
            <trkpt lat="56.9190100" lon="-2.9932400"/>
            <trkpt lat="56.9187000" lon="-2.9929600"/>
            <trkpt lat="56.9181100" lon="-2.9926800"/>
            <trkpt lat="56.9175400" lon="-2.9922100"/>
            <trkpt lat="56.9172600" lon="-2.9921800"/>
            <trkpt lat="56.9170100" lon="-2.9922700"/>
            <trkpt lat="56.9167500" lon="-2.9924600"/>
            <trkpt lat="56.9162200" lon="-2.9927100"/>
            <trkpt lat="56.9156700" lon="-2.9931400"/>
            <trkpt lat="56.9151800" lon="-2.9934300"/>
            <trkpt lat="56.9149400" lon="-2.9936900"/>
            <trkpt lat="56.9142200" lon="-2.9943200"/>
            <trkpt lat="56.9136500" lon="-2.9945700"/>
            <trkpt lat="56.9128000" lon="-2.9946100"/>
            <trkpt lat="56.9122800" lon="-2.9944800"/>
            <trkpt lat="56.9119300" lon="-2.9944800"/>
            <trkpt lat="56.9116500" lon="-2.9944300"/>
            <trkpt lat="56.9113600" lon="-2.9942800"/>
            <trkpt lat="56.9111100" lon="-2.9940300"/>
            <trkpt lat="56.9110100" lon="-2.9939600"/>
            <trkpt lat="56.9106700" lon="-2.9937400"/>
            <trkpt lat="56.9102400" lon="-2.9930300"/>
            <trkpt lat="56.9098700" lon="-2.9925900"/>
            <trkpt lat="56.9094600" lon="-2.9919400"/>
            <trkpt lat="56.9088700" lon="-2.9906900"/>
            <trkpt lat="56.9083400" lon="-2.9898600"/>
            <trkpt lat="56.9080700" lon="-2.9893400"/>
            <trkpt lat="56.9076300" lon="-2.9882400"/>
            <trkpt lat="56.9074700" lon="-2.9878600"/>
            <trkpt lat="56.9066900" lon="-2.9856600"/>
            <trkpt lat="56.9060700" lon="-2.9844600"/>
            <trkpt lat="56.9058900" lon="-2.9840700"/>
            <trkpt lat="56.9056500" lon="-2.9833900"/>
            <trkpt lat="56.9050100" lon="-2.9819600"/>
            <trkpt lat="56.9048300" lon="-2.9814300"/>
            <trkpt lat="56.9047400" lon="-2.9809200"/>
            <trkpt lat="56.9046600" lon="-2.9796900"/>
            <trkpt lat="56.9043800" lon="-2.9778900"/>
            <trkpt lat="56.9043400" lon="-2.9773200"/>
            <trkpt lat="56.9043600" lon="-2.9768900"/>
            <trkpt lat="56.9043100" lon="-2.9764100"/>
            <trkpt lat="56.9040400" lon="-2.9748900"/>
            <trkpt lat="56.9037800" lon="-2.9740900"/>
            <trkpt lat="56.9037200" lon="-2.9736400"/>
            <trkpt lat="56.9037900" lon="-2.9728300"/>
            <trkpt lat="56.9037900" lon="-2.9723300"/>
            <trkpt lat="56.9036600" lon="-2.9702800"/>
            <trkpt lat="56.9036800" lon="-2.9693900"/>
            <trkpt lat="56.9038300" lon="-2.9679300"/>
            <trkpt lat="56.9039300" lon="-2.9670400"/>
            <trkpt lat="56.9039900" lon="-2.9667900"/>
            <trkpt lat="56.9042000" lon="-2.9663300"/>
            <trkpt lat="56.9043500" lon="-2.9651900"/>
            <trkpt lat="56.9043800" lon="-2.9640600"/>
            <trkpt lat="56.9043400" lon="-2.9632800"/>
            <trkpt lat="56.9044200" lon="-2.9624000"/>
            <trkpt lat="56.9045800" lon="-2.9611000"/>
            <trkpt lat="56.9045500" lon="-2.9604300"/>
            <trkpt lat="56.9048100" lon="-2.9593500"/>
            <trkpt lat="56.9048500" lon="-2.9589300"/>
            <trkpt lat="56.9048600" lon="-2.9586400"/>
            <trkpt lat="56.9048100" lon="-2.9581600"/>
            <trkpt lat="56.9048000" lon="-2.9575400"/>
            <trkpt lat="56.9048700" lon="-2.9568000"/>
            <trkpt lat="56.9049800" lon="-2.9564500"/>
            <trkpt lat="56.9051000" lon="-2.9561900"/>
            <trkpt lat="56.9054000" lon="-2.9535400"/>
            <trkpt lat="56.9057400" lon="-2.9518800"/>
            <trkpt lat="56.9057800" lon="-2.9512100"/>
            <trkpt lat="56.9061000" lon="-2.9500200"/>
            <trkpt lat="56.9066300" lon="-2.9485300"/>
            <trkpt lat="56.9067200" lon="-2.9480900"/>
            <trkpt lat="56.9068800" lon="-2.9465400"/>
            <trkpt lat="56.9069600" lon="-2.9459700"/>
            <trkpt lat="56.9076300" lon="-2.9441800"/>
            <trkpt lat="56.9078900" lon="-2.9433300"/>
            <trkpt lat="56.9080700" lon="-2.9428700"/>
            <trkpt lat="56.9082100" lon="-2.9420600"/>
            <trkpt lat="56.9083700" lon="-2.9413100"/>
            <trkpt lat="56.9086900" lon="-2.9396100"/>
            <trkpt lat="56.9090100" lon="-2.9387800"/>
            <trkpt lat="56.9090300" lon="-2.9381900"/>
            <trkpt lat="56.9091200" lon="-2.9374600"/>
            <trkpt lat="56.9090300" lon="-2.9361700"/>
            <trkpt lat="56.9090200" lon="-2.9358100"/>
            <trkpt lat="56.9092600" lon="-2.9336300"/>
            <trkpt lat="56.9095200" lon="-2.9308900"/>
            <trkpt lat="56.9096000" lon="-2.9304000"/>
            <trkpt lat="56.9097300" lon="-2.9298700"/>
            <trkpt lat="56.9104000" lon="-2.9275700"/>
            <trkpt lat="56.9104100" lon="-2.9274400"/>
            <trkpt lat="56.9103200" lon="-2.9264600"/>
            <trkpt lat="56.9103100" lon="-2.9261200"/>
            <trkpt lat="56.9103300" lon="-2.9258300"/>
            <trkpt lat="56.9104100" lon="-2.9254300"/>
            <trkpt lat="56.9104500" lon="-2.9250500"/>
            <trkpt lat="56.9104400" lon="-2.9247100"/>
            <trkpt lat="56.9104500" lon="-2.9243300"/>
            <trkpt lat="56.9105100" lon="-2.9239800"/>
            <trkpt lat="56.9106400" lon="-2.9236700"/>
            <trkpt lat="56.9107500" lon="-2.9232300"/>
            <trkpt lat="56.9107800" lon="-2.9229500"/>
            <trkpt lat="56.9107600" lon="-2.9224100"/>
            <trkpt lat="56.9107900" lon="-2.9221500"/>
            <trkpt lat="56.9110600" lon="-2.9213300"/>
            <trkpt lat="56.9113200" lon="-2.9208500"/>
            <trkpt lat="56.9114100" lon="-2.9205600"/>
            <trkpt lat="56.9116200" lon="-2.9194100"/>
            <trkpt lat="56.9115800" lon="-2.9187900"/>
            <trkpt lat="56.9115800" lon="-2.9180800"/>
            <trkpt lat="56.9116200" lon="-2.9167700"/>
            <trkpt lat="56.9115800" lon="-2.9161500"/>
            <trkpt lat="56.9113700" lon="-2.9155600"/>
            <trkpt lat="56.9113500" lon="-2.9154300"/>
            <trkpt lat="56.9113500" lon="-2.9152900"/>
            <trkpt lat="56.9115500" lon="-2.9147900"/>
            <trkpt lat="56.9116000" lon="-2.9143100"/>
            <trkpt lat="56.9115800" lon="-2.9140500"/>
            <trkpt lat="56.9114300" lon="-2.9135800"/>
            <trkpt lat="56.9113100" lon="-2.9130600"/>
            <trkpt lat="56.9112700" lon="-2.9126400"/>
            <trkpt lat="56.9112900" lon="-2.9116400"/>
            <trkpt lat="56.9112400" lon="-2.9109200"/>
            <trkpt lat="56.9112200" lon="-2.9104500"/>
        </trkseg>
    </trk>
</gpx>
